NORAD_CAT_ID,OBJECT_NAME,OBJECT_TYPE,EPOCH,MEAN_MOTION,ECCENTRICITY,INCLINATION,RA_OF_ASC_NODE,ARG_OF_PERICENTER,MEAN_ANOMALY,BSTAR,MEAN_MOTION_DOT,MEAN_MOTION_DDOT,TLE_LINE0,TLE_LINE1,TLE_LINE2,SEMIMAJOR_AXIS,PERIOD,APOGEE,PERIGEE,DECAYED
52460.0,STARLINK-3865,PAYLOAD,2022-05-22 22:00:01,15.73123814,0.0002043,53.2155,184.5974,27.2584,319.5611,0.00076085,0.00107185,0.0,0 STARLINK-3865,1 52460U 22049K   22142.91668981  .00107185  00000-0  76085-3 0  9994,2 52460  53.2155 184.5974 0002043  27.2584 319.5611 15.73123814  2772,6728.111999999999,91.538,351.352,348.603,0.0
52460.0,STARLINK-3865,PAYLOAD,2022-05-23 14:00:01,15.73225801,0.0002335,53.2151,181.3006,25.1906,139.3683,-0.00047751,-0.00067187,0.0,0 STARLINK-3865,1 52460U 22049K   22143.58334491 -.00067187  00000-0 -47751-3 0  9991,2 52460  53.2151 181.3006 0002335  25.1906 139.3683 15.73225801  1302,6727.821999999999,91.532,351.2580000000001,348.116,0.0
52460.0,STARLINK-3865,PAYLOAD,2022-05-23 16:00:00,15.73236953,0.00023,53.2149,180.8876,25.1297,251.6627,-0.00086345,-0.00120292,0.0,0 STARLINK-3865,1 52460U 22049K   22143.66667824 -.00120292  00000-0 -86345-3 0  9998,2 52460  53.2149 180.8876 0002300  25.1297 251.6627 15.73236953  2883,6727.79,91.531,351.202,348.107,0.0
52460.0,STARLINK-3865,PAYLOAD,2022-05-23 22:00:01,15.73126428,0.0002164,53.2151,179.6489,30.4034,223.1765,0.00054424,0.00076219,0.0,0 STARLINK-3865,1 52460U 22049K   22143.91668981  .00076219  00000-0  54424-3 0  9991,2 52460  53.2151 179.6489 0002164  30.4034 223.1765 15.73126428  1306,6728.105,91.537,351.426,348.514,0.0
52460.0,STARLINK-3865,PAYLOAD,2022-05-24 03:01:33,15.73189943,0.0003168,53.2155,178.6122,348.1483,11.9462,6.6631e-05,8.736e-05,0.0,0 STARLINK-3865,1 52460U 22049K   22144.12608352  .00008736  00000-0  66631-4 0  9994,2 52460  53.2155 178.6122 0003168 348.1483  11.9462 15.73189943  2966,6727.924,91.534,351.92,347.657,0.0
52460.0,STARLINK-3865,PAYLOAD,2022-05-24 13:41:55,15.73183671,0.0002428,53.2155,176.4118,26.5288,333.5856,-2.2473e-06,-9.37e-06,0.0,0 STARLINK-3865,1 52460U 22049K   22144.57078599 -.00000937  00000-0 -22473-5 0  9991,2 52460  53.2155 176.4118 0002428  26.5288 333.5856 15.73183671  2877,6727.941999999999,91.534,351.44,348.173,0.0
52460.0,STARLINK-3865,PAYLOAD,2022-05-24 14:00:01,15.73204745,0.0002115,53.2171,176.355,35.8384,35.3523,1.2687e-06,-4.43e-06,0.0,0 STARLINK-3865,1 52460U 22049K   22144.58334491 -.00000443  00000-0  12687-5 0  9995,2 52460  53.2171 176.3550 0002115  35.8384  35.3523 15.73204745  3030,6727.882,91.533,351.17,348.324,0.0
52460.0,STARLINK-3865,PAYLOAD,2022-05-24 22:00:00,15.73173767,0.0002085,53.2155,174.7005,26.5792,133.6862,0.0007245,0.00102193,0.0,0 STARLINK-3865,1 52460U 22049K   22144.91667824  .00102193  00000-0  72450-3 0  9997,2 52460  53.2155 174.7005 0002085  26.5792 133.6862 15.73173767  3087,6727.97,91.535,351.23800000000006,348.432,0.0
52460.0,STARLINK-3865,PAYLOAD,2022-05-25 06:00:00,15.73266701,0.0002199,53.2157,173.0521,26.3957,222.8066,-0.00052751,-0.00074224,0.0,0 STARLINK-3865,1 52460U 22049K   22145.25001157 -.00074224  00000-0 -52751-3 0  9993,2 52460  53.2157 173.0521 0002199  26.3957 222.8066 15.73266701  3135,6727.705,91.529,351.0490000000001,348.091,0.0
52460.0,STARLINK-3865,PAYLOAD,2022-05-25 12:00:00,15.73196038,0.0002365,53.2154,171.8161,23.8172,202.125,0.00048723,0.0006831,0.0,0 STARLINK-3865,1 52460U 22049K   22145.50001157  .00068310  00000-0  48723-3 0  9992,2 52460  53.2154 171.8161 0002365  23.8172 202.1250 15.73196038  3179,6727.906,91.533,351.36300000000006,348.18,0.0
52460.0,STARLINK-3865,PAYLOAD,2022-05-25 14:00:01,15.73237112,0.0002376,53.2149,171.4035,22.5442,315.6237,-6.1456e-05,-9.252e-05,0.0,0 STARLINK-3865,1 52460U 22049K   22145.58334491 -.00009252  00000-0 -61456-4 0  9991,2 52460  53.2149 171.4035 0002376  22.5442 315.6237 15.73237112  1304,6727.7890000000025,91.531,351.25300000000016,348.056,0.0
52460.0,STARLINK-3865,PAYLOAD,2022-05-25 22:00:00,15.73211524,0.0002053,53.2149,169.7518,26.9599,40.1988,-2.4736e-05,-4.093e-05,0.0,0 STARLINK-3865,1 52460U 22049K   22145.91667824 -.00004093  00000-0 -24736-4 0  9995,2 52460  53.2149 169.7518 0002053  26.9599  40.1988 15.73211524  3240,6727.861999999999,91.533,351.1090000000001,348.346,0.0
52460.0,STARLINK-3865,PAYLOAD,2022-05-26 05:20:23,15.73161443,0.0002346,53.2154,168.2377,46.7452,313.3764,-0.00028189,-0.00039935,0.0,0 STARLINK-3865,1 52460U 22049K   22146.22249744 -.00039935  00000-0 -28189-3 0  9995,2 52460  53.2154 168.2377 0002346  46.7452 313.3764 15.73161443  3292,6728.005,91.535,351.4480000000001,348.292,0.0
52460.0,STARLINK-3865,PAYLOAD,2022-05-26 06:00:00,15.73180168,0.0002068,53.215,168.1036,19.4443,136.6533,-0.00053009,-0.00074306,0.0,0 STARLINK-3865,1 52460U 22049K   22146.25001157 -.00074306  00000-0 -53009-3 0  9992,2 52460  53.2150 168.1036 0002068  19.4443 136.6533 15.73180168  3292,6727.9519999999975,91.534,351.208,348.425,0.0
52460.0,STARLINK-3865,PAYLOAD,2022-05-26 12:57:47,15.73208892,0.0001895,53.2151,166.6657,27.2486,332.8633,-1.5217e-05,-2.757e-05,0.0,0 STARLINK-3865,1 52460U 22049K   22146.54013050 -.00002757  00000-0 -15217-4 0  9990,2 52460  53.2151 166.6657 0001895  27.2486 332.8633 15.73208892  3348,6727.87,91.533,351.01,348.46,0.0
52460.0,STARLINK-3865,PAYLOAD,2022-05-26 14:00:01,15.73127499,0.0002189,53.2147,166.4549,15.0478,229.9138,0.00047514,0.00066387,0.0,0 STARLINK-3865,1 52460U 22049K   22146.58334491  .00066387  00000-0  47514-3 0  9990,2 52460  53.2147 166.4549 0002189  15.0478 229.9138 15.73127499  1307,6728.102,91.537,351.44,348.494,0.0
52460.0,STARLINK-3865,PAYLOAD,2022-05-26 20:00:01,15.73151223,0.0002037,53.2153,165.2161,17.6783,203.938,0.00048992,0.00068559,0.0,0 STARLINK-3865,1 52460U 22049K   22146.83334491  .00068559  00000-0  48992-3 0  9992,2 52460  53.2153 165.2161 0002037  17.6783 203.9380 15.73151223  3383,6728.034000000002,91.536,351.27,348.529,0.0
52460.0,STARLINK-3865,PAYLOAD,2022-05-26 22:00:00,15.73145082,0.0002003,53.215,164.8033,19.0469,314.7953,0.00073754,0.00103936,0.0,0 STARLINK-3865,1 52460U 22049K   22146.91667824  .00103936  00000-0  73754-3 0  9993,2 52460  53.2150 164.8033 0002003  19.0469 314.7953 15.73145082  1306,6728.052,91.536,351.264,348.569,0.0
52460.0,STARLINK-3865,PAYLOAD,2022-05-27 14:00:01,15.73260351,0.0002331,53.2144,161.5062,21.6692,130.0151,-0.00070498,-0.00098678,0.0,0 STARLINK-3865,1 52460U 22049K   22147.58334491 -.00098678  00000-0 -70498-3 0  9998,2 52460  53.2144 161.5062 0002331  21.6692 130.0151 15.73260351  1302,6727.723000000001,91.53,351.156,348.02,0.0
52460.0,STARLINK-3865,PAYLOAD,2022-05-27 16:00:00,15.72998232,0.0002333,53.2165,161.0947,24.6497,239.3166,0.0019667,0.00282435,0.0,0 STARLINK-3865,1 52460U 22049K   22147.66667824  .00282435  00000-0  19667-2 0  9990,2 52460  53.2165 161.0947 0002333  24.6497 239.3166 15.72998232  3519,6728.47,91.545,351.905,348.766,0.0
52460.0,STARLINK-3865,PAYLOAD,2022-05-27 22:00:01,15.73207052,0.000209,53.2173,159.8567,25.3979,215.2015,-2.7373e-05,-4.462e-05,0.0,0 STARLINK-3865,1 52460U 22049K   22147.91668981 -.00004462  00000-0 -27373-4 0  9992,2 52460  53.2173 159.8567 0002090  25.3979 215.2015 15.73207052  1309,6727.875,91.533,351.146,348.334,0.0
52460.0,STARLINK-3865,PAYLOAD,2022-05-28 06:00:02,15.73205635,0.000222,53.2173,158.2088,25.5445,303.9891,-1.647e-05,-2.933e-05,0.0,0 STARLINK-3865,1 52460U 22049K   22148.25002315 -.00002933  00000-0 -16470-4 0  9990,2 52460  53.2173 158.2088 0002220  25.5445 303.9891 15.73205635  3613,6727.879,91.533,351.23800000000006,348.251,0.0
52460.0,STARLINK-3865,PAYLOAD,2022-05-28 14:00:01,15.73298564,0.0002425,53.2143,156.5571,29.6542,28.9924,-0.00049765,-0.00070189,0.0,0 STARLINK-3865,1 52460U 22049K   22148.58334491 -.00070189  00000-0 -49765-3 0  9999,2 52460  53.2143 156.5571 0002425  29.6542  28.9924 15.73298564  3667,6727.614000000001,91.527,351.111,347.848,0.0
52460.0,STARLINK-3865,PAYLOAD,2022-05-28 22:00:00,15.73237231,0.000217,53.2146,154.9053,32.6359,115.033,6.9328e-05,9.135e-05,0.0,0 STARLINK-3865,1 52460U 22049K   22148.91667824  .00009135  00000-0  69328-4 0  9994,2 52460  53.2146 154.9053 0002170  32.6359 115.0330 15.73237231  1306,6727.7890000000025,91.531,351.11400000000015,348.194,0.0
52460.0,STARLINK-3865,PAYLOAD,2022-05-29 14:00:01,15.73159712,0.0002241,53.2143,151.608,22.2138,303.3145,-0.00064265,-0.00089715,0.0,0 STARLINK-3865,1 52460U 22049K   22149.58334491 -.00089715  00000-0 -64265-3 0  9997,2 52460  53.2143 151.6080 0002241  22.2138 303.3145 15.73159712  1309,6728.01,91.536,351.3830000000001,348.367,0.0
52460.0,STARLINK-3865,PAYLOAD,2022-05-29 20:00:01,15.73070977,0.0001975,53.2144,150.3693,22.4765,279.705,0.00047068,0.00065591,0.0,0 STARLINK-3865,1 52460U 22049K   22149.83334491  .00065591  00000-0  47068-3 0  9991,2 52460  53.2144 150.3693 0001975  22.4765 279.7050 15.73070977  3855,6728.263000000001,91.541,351.457,348.7990000000001,0.0
52460.0,STARLINK-3865,PAYLOAD,2022-05-29 22:00:00,15.73064034,0.0001921,53.2144,149.9567,22.6363,31.7477,0.00069921,0.00098091,0.0,0 STARLINK-3865,1 52460U 22049K   22149.91667824  .00098091  00000-0  69921-3 0  9992,2 52460  53.2144 149.9567 0001921  22.6363  31.7477 15.73064034  1300,6728.283,91.541,351.44,348.855,0.0
52460.0,STARLINK-3865,PAYLOAD,2022-05-30 12:00:00,15.73134188,0.0002207,53.2145,147.0728,20.0575,99.7648,0.00051754,0.00072441,0.0,0 STARLINK-3865,1 52460U 22049K   22150.50001157  .00072441  00000-0  51754-3 0  9996,2 52460  53.2145 147.0728 0002207  20.0575  99.7648 15.73134188  3960,6728.083000000001,91.537,351.43300000000005,348.463,0.0
52460.0,STARLINK-3865,PAYLOAD,2022-05-30 14:00:01,15.73168417,0.0002154,53.2145,146.6598,20.3408,211.6903,0.00013348,0.00018128,0.0,0 STARLINK-3865,1 52460U 22049K   22150.58334491  .00018128  00000-0  13348-3 0  9993,2 52460  53.2145 146.6598 0002154  20.3408 211.6903 15.73168417  1306,6727.985,91.535,351.2990000000001,348.401,0.0
